[{"OBJECT_NAME":"UWE-3","OBJECT_ID":"2013-066AG","EPOCH":"2026-03-09T20:43:24.491424","MEAN_MOTION":14.96183146,"ECCENTRICITY":0.00484622,"INCLINATION":97.8589,"RA_OF_ASC_NODE":24.3957,"ARG_OF_PERICENTER":291.5404,"MEAN_ANOMALY":68.0655,"EPHEMERIS_TYPE":0,"CLASSIFICATION_TYPE":"U","NORAD_CAT_ID":39446,"ELEMENT_SET_NO":999,"REV_AT_EPOCH":66272,"BSTAR":0.00057141515,"MEAN_MOTION_DOT":6.533e-5,"MEAN_MOTION_DDOT":0},{"OBJECT_NAME":"STARLINK-34314","OBJECT_ID":"2025-112A","EPOCH":"2026-03-09T17:38:53.576448","MEAN_MOTION":15.05633982,"ECCENTRICITY":0.00014743,"INCLINATION":97.6026,"RA_OF_ASC_NODE":121.535,"ARG_OF_PERICENTER":105.5919,"MEAN_ANOMALY":254.547,"EPHEMERIS_TYPE":0,"CLASSIFICATION_TYPE":"U","NORAD_CAT_ID":64146,"ELEMENT_SET_NO":999,"REV_AT_EPOCH":4331,"BSTAR":0.0006457984,"MEAN_MOTION_DOT":9.266e-5,"MEAN_MOTION_DDOT":0}]
