UWE-3                   
1 39446U 13066AG  26068.86347791  .00006533  00000+0  57142-3 0  9997
2 39446  97.8589  24.3957 0048462 291.5404  68.0655 14.96183146662729
STARLINK-34314          
1 64146U 25112A   26068.73534232  .00009266  00000+0  64580-3 0  9991
2 64146  97.6026 121.5350 0001474 105.5919 254.5470 15.05633982 43316
